{
    "week": 295,
    "satellites": [
        {
            "Name": "BEIDOU-2 G6 (C02)",
            "Line1": "1 38953U 12059A   24335.53290983 -.00000148  00000+0  00000+0 0  9993",
            "Line2": "2 38953   2.9840  79.1397 0007407 291.0505 335.6100  1.00272832 44257",
            "SatelliteNumber": "38953",
            "Classification": "U",
            "LaunchYear": "12",
            "LaunchNumber": "059",
            "PieceOfLaunch": "A",
            "EpochYear": "24",
            "EpochDay": 335.53290983,
            "FirstDerivativeMeanMotion": -1.48e-06,
            "SecondDerivativeMeanMotion": "00000+0",
            "BSTAR": "00000+0",
            "SetNumber": "999",
            "Inclination": 2.984,
            "RAAN": 79.1397,
            "Eccentricity": 0.0007407,
            "ArgumentOfPerigee": 291.0505,
            "MeanAnomaly": 335.61,
            "MeanMotion": 1.00272832,
            "RevolutionNumber": "4425"
        },
        {
            "Name": "BEIDOU-3S IGSO-1S (C31)",
            "Line1": "1 40549U 15019A   24334.89181297 -.00000188  00000+0  00000+0 0  9995",
            "Line2": "2 40549  50.2672 302.2272 0034978 198.8464 345.7668  1.00267912 35415",
            "SatelliteNumber": "40549",
            "Classification": "U",
            "LaunchYear": "15",
            "LaunchNumber": "019",
            "PieceOfLaunch": "A",
            "EpochYear": "24",
            "EpochDay": 334.89181297,
            "FirstDerivativeMeanMotion": -1.88e-06,
            "SecondDerivativeMeanMotion": "00000+0",
            "BSTAR": "00000+0",
            "SetNumber": "999",
            "Inclination": 50.2672,
            "RAAN": 302.2272,
            "Eccentricity": 0.0034978,
            "ArgumentOfPerigee": 198.8464,
            "MeanAnomaly": 345.7668,
            "MeanMotion": 1.00267912,
            "RevolutionNumber": "3541"
        },
        {
            "Name": "BEIDOU-3S M2S (C58)",
            "Line1": "1 40748U 15037A   24334.44512639 -.00000070  00000+0  00000+0 0  9995",
            "Line2": "2 40748  55.3545 321.4083 0013028 261.1366  98.7183  1.86229159 63606",
            "SatelliteNumber": "40748",
            "Classification": "U",
            "LaunchYear": "15",
            "LaunchNumber": "037",
            "PieceOfLaunch": "A",
            "EpochYear": "24",
            "EpochDay": 334.44512639,
            "FirstDerivativeMeanMotion": -7e-07,
            "SecondDerivativeMeanMotion": "00000+0",
            "BSTAR": "00000+0",
            "SetNumber": "999",
            "Inclination": 55.3545,
            "RAAN": 321.4083,
            "Eccentricity": 0.0013028,
            "ArgumentOfPerigee": 261.1366,
            "MeanAnomaly": 98.7183,
            "MeanMotion": 1.86229159,
            "RevolutionNumber": "6360"
        },
        {
            "Name": "BEIDOU-3S M1S (C57)",
            "Line1": "1 40749U 15037B   24335.25538233 -.00000067  00000+0  00000+0 0  9990",
            "Line2": "2 40749  55.3566 321.3672 0004351 322.5467  37.4241  1.86227645 63621",
            "SatelliteNumber": "40749",
            "Classification": "U",
            "LaunchYear": "15",
            "LaunchNumber": "037",
            "PieceOfLaunch": "B",
            "EpochYear": "24",
            "EpochDay": 335.25538233,
            "FirstDerivativeMeanMotion": -6.7e-07,
            "SecondDerivativeMeanMotion": "00000+0",
            "BSTAR": "00000+0",
            "SetNumber": "999",
            "Inclination": 55.3566,
            "RAAN": 321.3672,
            "Eccentricity": 0.0004351,
            "ArgumentOfPerigee": 322.5467,
            "MeanAnomaly": 37.4241,
            "MeanMotion": 1.86227645,
            "RevolutionNumber": "6362"
        },
        {
            "Name": "BEIDOU-3S IGSO-2S (C56)",
            "Line1": "1 40938U 15053A   24334.77914942 -.00000149  00000+0  00000+0 0  9990",
            "Line2": "2 40938  50.1021 265.4691 0051564 189.4010 351.2019  1.00268417 33693",
            "SatelliteNumber": "40938",
            "Classification": "U",
            "LaunchYear": "15",
            "LaunchNumber": "053",
            "PieceOfLaunch": "A",
            "EpochYear": "24",
            "EpochDay": 334.77914942,
            "FirstDerivativeMeanMotion": -1.49e-06,
            "SecondDerivativeMeanMotion": "00000+0",
            "BSTAR": "00000+0",
            "SetNumber": "999",
            "Inclination": 50.1021,
            "RAAN": 265.4691,
            "Eccentricity": 0.0051564,
            "ArgumentOfPerigee": 189.401,
            "MeanAnomaly": 351.2019,
            "MeanMotion": 1.00268417,
            "RevolutionNumber": "3369"
        },
        {
            "Name": "BEIDOU-2 IGSO-6 (C13)",
            "Line1": "1 41434U 16021A   24334.67319979 -.00000172  00000+0  00000+0 0  9992",
            "Line2": "2 41434  59.4228  43.6880 0055330 225.4871 138.8522  1.00283077 31823",
            "SatelliteNumber": "41434",
            "Classification": "U",
            "LaunchYear": "16",
            "LaunchNumber": "021",
            "PieceOfLaunch": "A",
            "EpochYear": "24",
            "EpochDay": 334.67319979,
            "FirstDerivativeMeanMotion": -1.72e-06,
            "SecondDerivativeMeanMotion": "00000+0",
            "BSTAR": "00000+0",
            "SetNumber": "999",
            "Inclination": 59.4228,
            "RAAN": 43.688,
            "Eccentricity": 0.005533,
            "ArgumentOfPerigee": 225.4871,
            "MeanAnomaly": 138.8522,
            "MeanMotion": 1.00283077,
            "RevolutionNumber": "3182"
        },
        {
            "Name": "BEIDOU-2 G7 (C03)",
            "Line1": "1 41586U 16037A   24335.50027650 -.00000326  00000+0  00000+0 0  9993",
            "Line2": "2 41586   1.7774  67.2190 0007477 345.4252 307.8506  1.00275899  1233",
            "SatelliteNumber": "41586",
            "Classification": "U",
            "LaunchYear": "16",
            "LaunchNumber": "037",
            "PieceOfLaunch": "A",
            "EpochYear": "24",
            "EpochDay": 335.5002765,
            "FirstDerivativeMeanMotion": -3.26e-06,
            "SecondDerivativeMeanMotion": "00000+0",
            "BSTAR": "00000+0",
            "SetNumber": "999",
            "Inclination": 1.7774,
            "RAAN": 67.219,
            "Eccentricity": 0.0007477,
            "ArgumentOfPerigee": 345.4252,
            "MeanAnomaly": 307.8506,
            "MeanMotion": 1.00275899,
            "RevolutionNumber": "123"
        },
        {
            "Name": "BEIDOU-3 M1 (C19)",
            "Line1": "1 43001U 17069A   24335.33086720 -.00000032  00000+0  00000+0 0  9991",
            "Line2": "2 43001  56.2010  81.7358 0008458 296.5646  63.3314  1.86231320 48108",
            "SatelliteNumber": "43001",
            "Classification": "U",
            "LaunchYear": "17",
            "LaunchNumber": "069",
            "PieceOfLaunch": "A",
            "EpochYear": "24",
            "EpochDay": 335.3308672,
            "FirstDerivativeMeanMotion": -3.2e-07,
            "SecondDerivativeMeanMotion": "00000+0",
            "BSTAR": "00000+0",
            "SetNumber": "999",
            "Inclination": 56.201,
            "RAAN": 81.7358,
            "Eccentricity": 0.0008458,
            "ArgumentOfPerigee": 296.5646,
            "MeanAnomaly": 63.3314,
            "MeanMotion": 1.8623132,
            "RevolutionNumber": "4810"
        },
        {
            "Name": "BEIDOU-3 M2 (C20)",
            "Line1": "1 43002U 17069B   24334.73151336 -.00000035  00000+0  00000+0 0  9994",
            "Line2": "2 43002  56.1997  81.7913 0005830 326.5945  33.3499  1.86230972 48086",
            "SatelliteNumber": "43002",
            "Classification": "U",
            "LaunchYear": "17",
            "LaunchNumber": "069",
            "PieceOfLaunch": "B",
            "EpochYear": "24",
            "EpochDay": 334.73151336,
            "FirstDerivativeMeanMotion": -3.5e-07,
            "SecondDerivativeMeanMotion": "00000+0",
            "BSTAR": "00000+0",
            "SetNumber": "999",
            "Inclination": 56.1997,
            "RAAN": 81.7913,
            "Eccentricity": 0.000583,
            "ArgumentOfPerigee": 326.5945,
            "MeanAnomaly": 33.3499,
            "MeanMotion": 1.86230972,
            "RevolutionNumber": "4808"
        },
        {
            "Name": "BEIDOU-3 M7 (C27)",
            "Line1": "1 43107U 18003A   24334.47912341 -.00000072  00000+0  00000+0 0  9992",
            "Line2": "2 43107  54.8130 321.9254 0002411  59.4883 300.5390  1.86232516 46834",
            "SatelliteNumber": "43107",
            "Classification": "U",
            "LaunchYear": "18",
            "LaunchNumber": "003",
            "PieceOfLaunch": "A",
            "EpochYear": "24",
            "EpochDay": 334.47912341,
            "FirstDerivativeMeanMotion": -7.2e-07,
            "SecondDerivativeMeanMotion": "00000+0",
            "BSTAR": "00000+0",
            "SetNumber": "999",
            "Inclination": 54.813,
            "RAAN": 321.9254,
            "Eccentricity": 0.0002411,
            "ArgumentOfPerigee": 59.4883,
            "MeanAnomaly": 300.539,
            "MeanMotion": 1.86232516,
            "RevolutionNumber": "4683"
        }
    ]
}